LUCKY-7                 
1 44406U 19038W   24131.48582230  .00042822  00000+0  10398-2 0  9992
2 44406  97.7032 127.5376 0012435 211.7530 148.2967 15.40816421268558
BEESAT 9                
1 44412U 19038AC  24131.56314846  .00361134  00000+0  19101-2 0  9995
2 44412  97.6767 136.1727 0010843 167.5114 192.6424 15.79549498268866
JAISAT-1                
1 44419U 19038F   24131.55052250  .00306389  00000+0  18339-2 0  9992
2 44419  97.6750 137.0980 0010213 164.9071 195.2500 15.76918325269232
DUCHIFAT-3              
1 44854U 19089C   24131.57885682  .00022736  00000+0  11942-2 0  9990
2 44854  36.9580 277.1424 0006591 134.0081 226.1209 15.14944411242568
M2 PATHFINDER           
1 45727U 20037E   24131.42044191  .00005567  00000+0  49110-3 0  9993
2 45727  97.7746 308.0669 0010471 246.6744 113.3376 14.96771827210295
NETSAT-4                
1 46504U 20068U   24131.41866597  .00015613  00000+0  85655-3 0  9999
2 46504  97.8046  87.5694 0011987 124.7038 235.5324 15.14193664198456
NETSAT-3                
1 46505U 20068V   24131.38952913  .00012979  00000+0  72326-3 0  9997
2 46505  97.8018  87.0929 0011060 131.3405 228.8779 15.13687637198441
NETSAT-1                
1 46506U 20068W   24131.59868291  .00010952  00000+0  63652-3 0  9997
2 46506  97.8043  86.8634 0009439 138.8135 221.3809 15.12236908198441
NETSAT-2                
1 46507U 20068X   24131.43352815  .00015745  00000+0  86648-3 0  9996
2 46507  97.8029  87.2298 0008589 142.6754 217.5075 15.14109865198403
WILDTRACKCUBE-SIMBA     
1 47941U 21022K   24131.60551168  .00018143  00000+0  83866-3 0  9995
2 47941  97.4644  28.7319 0013638 276.9059  83.0625 15.20143342172751
BEESAT-6                
1 47957U 21022AB  24131.48989706  .00170429  00000+0  24873-2 0  9999
2 47957  97.4444  37.9004 0005788 189.0997 171.0153 15.55057427173178
SMOG-1                  
1 47964U 21022AJ  24131.27544512  .00152147  00000+0  23218-2 0  9995
2 47964  97.4672  40.7691 0007276 183.7195 176.4005 15.53883336172323
BCCSAT-1                
1 48041U 21022AK  24131.45637111  .00089126  00000+0  20324-2 0  9991
2 48041  97.4662  37.4945 0006131 199.3767 160.7248 15.42559404172106
BEESAT-5                
1 48083U 21022AM  24131.26199945  .00272997  00000+0  28052-2 0  9990
2 48083  97.4186  38.7961 0006794 165.6949 194.4504 15.64002500172392
BEESAT-7                
1 48084U 21022AN  24130.48459206  .00087607  00000+0  15488-2 0  9994
2 48084  97.4636  37.0468 0006336 207.1601 152.9320 15.50002032171744
BEESAT-8                
1 48085U 21022AP  24131.52150762  .00038880  00000+0  13346-2 0  9996
2 48085  97.4785  33.2724 0009817 255.8624 104.1525 15.29992084172114
LEDSAT                  
1 49069U 21073D   24131.43649619  .00021261  00000+0  89382-3 0  9998
2 49069  97.4391 202.8544 0020527  60.5493 299.7789 15.23241189150701
SITRO-AIS 5 (KATYS)     
1 57176U 23091L   24131.60491103  .00011210  00000+0  73645-3 0  9998
2 57176  97.6156 184.1233 0016426 246.6698 113.2802 15.07672353 47832
SITRO-AIS 6 (CHIRKIN)   
1 57192U 23091AC  24131.52521001  .00010179  00000+0  66822-3 0  9990
2 57192  97.6149 184.0666 0016280 246.6801 113.2714 15.07729240 47824
SITRO-AIS 8 (ANOKHIN)   
1 57193U 23091AD  24131.56684663  .00012544  00000+0  81640-3 0  9992
2 57193  97.6144 184.1578 0016318 248.1212 111.8281 15.07991399 47838
SITRO-AIS 7 (FARTUSHNIY)
1 57194U 23091AE  24131.52916167  .00010679  00000+0  70156-3 0  9993
2 57194  97.6150 184.0557 0016100 247.2121 112.7406 15.07690072 47822
SITRO-AIS 10 (BURDAEV)  
1 57199U 23091AK  24131.38260482  .00012223  00000+0  76021-3 0  9998
2 57199  97.6159 184.7659 0011542 234.3706 125.6448 15.09718890 47850
SITRO-AIS 9 (SHCHUKIN)  
1 57201U 23091AM  24131.51314627  .00012401  00000+0  77148-3 0  9997
2 57201  97.6152 184.8797 0011542 233.8472 126.1690 15.09707922 47876
SITRO-AIS 12 (SMIRENNIY)
1 57204U 23091AQ  24131.54655248  .00012686  00000+0  78502-3 0  9990
2 57204  97.6170 185.0288 0011474 227.0005 133.0264 15.09897880 47886
SITRO-AIS 11 (SHEFFER)  
1 57208U 23091AU  24131.60053733  .00012575  00000+0  77647-3 0  9998
2 57208  97.6166 185.1012 0011295 226.5064 133.5227 15.09978366 47895
SITRO-AIS 29            
1 59052U 24039B   24131.54476270  .00031192  00000+0  12150-2 0  9991
2 59052  97.3909  93.9101 0018012 359.3651   0.7562 15.25767889 10859
SITRO-AIS 30            
1 59053U 24039C   24131.54397837  .00031306  00000+0  12188-2 0  9991
2 59053  97.3907  93.9086 0018156   0.1098   0.0141 15.25781576 10849
SITRO-AIS 31            
1 59054U 24039D   24131.60554970  .00031088  00000+0  12067-2 0  9995
2 59054  97.3908  93.9790 0017987 359.7763   0.3464 15.25886067 10871
SITRO-AIS 33            
1 59055U 24039E   24131.60072920  .00031232  00000+0  12082-2 0  9994
2 59055  97.3911  93.9878 0017776   0.6901 359.4359 15.26001145 10862
SITRO-AIS 35            
1 59056U 24039F   24131.59825813  .00032179  00000+0  12429-2 0  9996
2 59056  97.3909  93.9900 0017595   0.8532 359.2733 15.26049311 10868
SITRO-AIS 32            
1 59057U 24039G   24131.60123603  .00029901  00000+0  11586-2 0  9999
2 59057  97.3910  93.9865 0017588   0.9597 359.1672 15.25959534 10862
SITRO-AIS 34            
1 59058U 24039H   24131.59961057  .00030253  00000+0  11708-2 0  9999
2 59058  97.3911  93.9900 0017764   0.7558 359.3704 15.25994254 10861
SITRO-AIS 36            
1 59059U 24039J   24131.59532020  .00030843  00000+0  11901-2 0  9994
2 59059  97.3909  93.9943 0017341   1.1310 358.9964 15.26095895 10865
SITRO-AIS 49            
1 59060U 24039K   24131.59466541  .00030708  00000+0  11853-2 0  9996
2 59060  97.3909  93.9947 0017345   0.8216 359.3047 15.26085627 10865
SITRO-AIS 50            
1 59061U 24039L   24131.59049846  .00030921  00000+0  11881-2 0  9990
2 59061  97.3908  94.0004 0017274   1.1253 359.0021 15.26236185 10863
SITRO-AIS 51            
1 59062U 24039M   24131.52395631  .00029672  00000+0  11406-2 0  9994
2 59062  97.3909  93.9368 0017228   1.0542 359.0730 15.26232126 10852
SITRO-AIS 52            
1 59063U 24039N   24131.52029324  .00032597  00000+0  12489-2 0  9990
2 59063  97.3909  93.9419 0017045   1.0499 359.0772 15.26324830 10858
SITRO-AIS 25            
1 59066U 24039R   24131.54796135  .00008055  00000+0  77486-3 0  9997
2 59066  95.4026  71.8824 0175758 112.0978 249.9007 14.82127647 10537
SITRO-AIS 26            
1 59067U 24039S   24131.54723421  .00007964  00000+0  76657-3 0  9993
2 59067  95.4026  71.8825 0175564 112.1294 249.8665 14.82132118 10534
SITRO-AIS 27            
1 59068U 24039T   24131.54174269  .00008066  00000+0  77425-3 0  9992
2 59068  95.4029  71.8897 0175311 111.9980 249.9969 14.82259723 10536
SITRO-AIS 28            
1 59071U 24039U   24131.60761155  .00008477  00000+0  81312-3 0  9995
2 59071  95.4029  71.9375 0175193 111.7721 250.2244 14.82291353 10548
BEIJING 1               
1 28890U 05043A   24131.59380700  .00000980  00000+0  20341-3 0  9991
2 28890  98.1948 254.7367 0015401 159.6090 200.5729 14.62284265988407
HUANJING 1A (HJ-1A)     
1 33320U 08041A   24131.56969752  .00003472  00000+0  46656-3 0  9999
2 33320  97.6320 140.4451 0021707 131.2233 229.0855 14.79726433844699
HUANJING 1B (HJ-1B)     
1 33321U 08041B   24131.58185185  .00002149  00000+0  28653-3 0  9999
2 33321  97.6280 144.9978 0038600 176.5757 183.5727 14.80085698844720
YAOGAN-4                
1 33446U 08061A   24131.56208507  .00003332  00000+0  45061-3 0  9998
2 33446  97.8787  64.1629 0016436  52.4477 307.8225 14.79588904831997
DEIMOS-1                
1 35681U 09041A   24131.50187424  .00001407  00000+0  22513-3 0  9996
2 35681  97.6801 315.4483 0002520 119.7034 240.4426 14.73233376793761
UK-DMC 2                
1 35683U 09041C   24131.57701698  .00002085  00000+0  33053-3 0  9994
2 35683  97.7764 280.7851 0001290 103.4156 256.7196 14.73181321793422
DMC3-FM1                
1 40715U 15032A   24131.59875525  .00001653  00000+0  20687-3 0  9995
2 40715  97.7550  11.6072 0007122  63.0507 297.1434 14.83571531476007
DMC3-FM2                
1 40716U 15032B   24131.62177360  .00001671  00000+0  20899-3 0  9997
2 40716  97.7603  12.6737 0009093  65.3877 294.8283 14.83575928476000
DMC3-FM3                
1 40717U 15032C   24131.57756116  .00001373  00000+0  17305-3 0  9991
2 40717  97.7651  13.8867 0010513  62.0632 298.1645 14.83528272476002
NOAA 15                 
1 25338U 98030A   24131.57297770  .00000521  00000+0  23349-3 0  9997
2 25338  98.5714 159.4810 0011515  77.2485 282.9981 14.26562752351829
DMSP 5D-3 F16 (USA 172) 
1 28054U 03048A   24131.58628868  .00000315  00000+0  18973-3 0  9995
2 28054  99.0215 137.7021 0007760 151.4923 319.8744 14.14011830 60985
NOAA 18                 
1 28654U 05018A   24131.54247782  .00000483  00000+0  28123-3 0  9992
2 28654  98.8745 208.8194 0014691 166.1099 194.0481 14.13193964977857
METEOSAT-9 (MSG-2)      
1 28912U 05049B   24130.86745740  .00000122  00000+0  00000+0 0  9994
2 28912   7.6012  61.1833 0000558 322.4456 202.4933  1.00272954 67349
EWS-G1 (GOES 13)        
1 29155U 06018A   24129.76437807  .00000046  00000+0  00000+0 0  9995
2 29155   2.5235  85.7152 0083690 253.9856 201.3690  0.99113435 65774
DMSP 5D-3 F17 (USA 191) 
1 29522U 06050A   24131.55437948  .00000348  00000+0  20394-3 0  9992
2 29522  98.7452 142.9066 0011341  87.5475 272.6996 14.14460290903870
FENGYUN 3A              
1 32958U 08026A   24131.59342723  .00000349  00000+0  18742-3 0  9999
2 32958  98.6019  79.8049 0008685 173.6540 186.4748 14.19075806826513
FENGYUN 2E              
1 33463U 08066A   24131.60577347  .00000015  00000+0  00000+0 0  9993
2 33463   7.5010  60.8689 0002058  25.3345 209.8505  0.99121014 56397
